#aV2023  5  4  0  0  0.00000000     288 DD+AD WGS84 FIT  NGA
## 2260 345600.00000000   300.00000000 60068 0.0000000000000
+   32     1  2  3  4  5  6  7  8  9 10 11 12 13 14 15 16 17
+         18 19 20 21 22 23 24 25 26 27 28 29 30 31 32  0  0
+          0  0  0  0  0  0  0  0  0  0  0  0  0  0  0  0  0
+          0  0  0  0  0  0  0  0  0  0  0  0  0  0  0  0  0
+          0  0  0  0  0  0  0  0  0  0  0  0  0  0  0  0  0
++         2  2  2  2  2  2  2  2  2  2  2  2  2  2  2  2  2
++         2  2  2  2  2  2  2  2  2  2  2  2  2  2  2  0  0
++         0  0  0  0  0  0  0  0  0  0  0  0  0  0  0  0  0
++         0  0  0  0  0  0  0  0  0  0  0  0  0  0  0  0  0
++         0  0  0  0  0  0  0  0  0  0  0  0  0  0  0  0  0
%c cc cc ccc ccc cccc cccc cccc cccc ccccc ccccc ccccc ccccc
%c cc cc ccc ccc cccc cccc cccc cccc ccccc ccccc ccccc ccccc
%f  0.0000000  0.000000000  0.00000000000  0.000000000000000
%f  0.0000000  0.000000000  0.00000000000  0.000000000000000
%i    0    0    0    0      0      0      0      0         0
%i    0    0    0    0      0      0      0      0         0
/*      NGA, ST. LOUIS,MO.                                  
/*   EPHEMERIS COMPUTED FROM 2 DAYS OF DATA                 
/*   EPOCHA v8 SMOOTHER                                     
/*   G2139 IERS2010 SATIGS SATAPC                           
*  2023  5  4  7 55  0.00000000
P  1 -22251.893244 -14743.587480   1487.600772    188.000829                    
V  1   -916.317902  -2621.102351 -32082.906475     -0.029969                    
P  2  10832.814411 -10677.920936 -21285.732915   -599.688217                    
V  2  24138.208342  14567.061490   5079.197246      0.038427                    
P  3 -12761.647603 -11302.740675  20271.941531   -312.956578                    
V  3   2933.725313 -25791.875343 -12337.506339      0.103986                    
P  4 -20905.707365  -3210.146410  16146.506144     32.706918                    
V  4  18038.293708  -9762.632037  21319.418957      0.095744                    
P  5   5785.846477  24092.544733  -9573.230198   -125.864796                    
V  5  -2863.009279  11849.327911  28720.843671     -0.014570                    
P  6  -7558.971451  12538.041637  22218.972892    588.082942                    
V  6 -22950.488159 -16014.736689   1328.483395      0.002425                    
P  7 -22361.648523  -3507.059654 -13825.796653    186.554501                    
V  7 -13655.589756 -12168.482069  23895.394857     -0.089892                    
P  8 -10966.878264 -11346.498680 -21480.560894   -120.814053                    
V  8  23994.364881 -12524.777230  -5265.811581     -0.017688                    
P  9 -24631.786535   6245.848350   7730.230081   -166.385582                    
V  9   7610.902028  -6923.533484  29530.929084      0.082290                    
P 10  11098.112145 -19197.798121 -14206.431702    -35.493605                    
V 10    530.451409  18532.220536 -24625.112614     -0.015809                    
P 11   6777.924689  19656.296578  16556.615132   -184.516864                    
V 11 -17683.990291 -11422.174131  20774.112295     -0.134153                    
P 12  11021.871410  14685.753480  18941.629856   -371.781743                    
V 12  -4991.687026  24129.063389 -15489.185654     -0.046657                    
P 13   2317.781538  15047.814792 -21926.189497    515.024030                    
V 13 -26235.098097   7941.679351   2898.097774      0.054241                    
P 14 -13358.131005  16388.462980 -15976.637086     45.398374                    
V 14     56.925366 -20517.586844 -21224.184885      0.124547                    
P 15  12842.479395  10452.807750 -21259.591509     36.411910                    
V 15 -21447.383081  14751.095441  -5563.573199      0.034401                    
P 16   -783.996891 -25371.550604  -7269.067358   -503.902460                    
V 16   4294.259668  -8335.308801  30324.475963      0.030990                    
P 17 -21661.539206  13918.186912   7168.346624    713.453098                    
V 17  -8668.679141   1204.156655 -30250.863430      0.015712                    
P 18  20402.176758    365.706891 -17084.792726   -251.766086                    
V 18  16712.139443  13758.989351  20105.171925     -0.161067                    
P 19 -15564.509363  15716.216852  14253.559859    312.259951                    
V 19 -18237.395841   4149.538749 -24392.973978      0.051081                    
P 20   1959.277524  26593.614621    506.699232    435.475033                    
V 20  -3084.493151   -331.323599  31338.496227     -0.020968                    
P 21 -20134.538204 -16610.706692  -6370.218668    153.988149                    
V 21   8516.312488   2481.752450 -29866.399232     -0.001602                    
P 22  11859.475231 -17054.533481  16907.522970    475.427358                    
V 22  19969.879421  -5649.301133 -20408.274245      0.065690                    
P 23  14604.329203  -7353.524758 -20892.625376     21.492440                    
V 23   -551.652041  26544.909745  -9871.516812      0.029134                    
P 24  21768.866190  15301.857659  -3451.590140   -175.979680                    
V 24  -4999.090555    862.547786 -30484.195193     -0.141322                    
P 25  15094.407739   2229.824285  21434.423381    440.340150                    
V 25  -1930.386322  27915.126770  -1260.543582      0.027624                    
P 26   4860.862519 -25164.625005   6135.560860    241.193220                    
V 26   3698.599212   8094.189673  30045.083074     -0.003954                    
P 27   1183.957689 -16535.499148 -20907.571869     44.887149                    
V 27  23921.688345 -10382.643437  10088.272818     -0.081975                    
P 28   9261.869323 -12075.530503  21743.551744     73.963151                    
V 28  23226.109107  15028.546256  -1550.412950      0.044257                    
P 29  24308.396360  -1647.669122  10625.456009   -598.105015                    
V 29 -11911.512707   6701.027522  28057.171823     -0.015042                    
P 30 -15589.530884   7227.916491 -20202.463539   -519.085139                    
V 30 -20597.768586 -15784.047073   9927.111624      0.020430                    
P 31    312.407184 -17205.502583  19945.114402   -215.379021                    
V 31  21746.754249  14033.724686  12097.969566     -0.008298                    
P 32  19067.371001 -16164.598937   8859.020449   -467.964115                    
V 32  11149.468451  -2363.124183 -29086.809263     -0.095212                    
EOF
